QIANFAN-41              
1 62242U 24232F   25323.57984866  .00000176  00000+0  25413-3 0  9998
2 62242  89.0045  43.5300 0012336 253.9500 106.0293 13.50976897 96122
QIANFAN-42              
1 62243U 24232G   25323.59147614  .00000661  00000+0  27883-3 0  9995
2 62243  89.0036  39.9974 0016318 153.5664 206.6365 14.24456039 98075
QIANFAN-43              
1 62244U 24232H   25323.57567121  .00000169  00000+0  24267-3 0  9999
2 62244  89.0050  43.5947 0013766 260.3057  99.6539 13.50977535 64736
QIANFAN-44              
1 62245U 24232J   25323.63744987  .00000117  00000+0  16279-3 0  9991
2 62245  89.0048  43.3996 0012029 256.3438 103.6374 13.50972196 96214
QIANFAN-45              
1 62246U 24232K   25323.53044287  .00000175  00000+0  25316-3 0  9993
2 62246  89.0051  43.5560 0012686 256.4338 103.5401 13.50976147 96127
QIANFAN-46              
1 62247U 24232L   25323.62922499  .00000187  00000+0  27164-3 0  9990
2 62247  89.0047  43.6161 0012657 262.4541  97.5172 13.50974280 96091
QIANFAN-47              
1 62248U 24232M   25323.63333602  .00000183  00000+0  26467-3 0  9995
2 62248  89.0043  43.5496 0013102 261.5825  98.3841 13.50976826 96123
QIANFAN-48              
1 62249U 24232N   25323.59627772  .00000167  00000+0  24073-3 0  9998
2 62249  89.0047  43.5543 0015346 264.9950  94.9450 13.50972659 96127
